norad_id,name,regime,epoch,line1,line2,inclination,eccentricity,mean_motion,raan,arg_pericenter,mean_anomaly
19751,COSMOS 1989 (ETALON 1),NSO,22274.83995241,1 19751U 89001C   22274.83995241  .00000054  00000-0  00000-0 0    12\,2 19751  64.3288 118.7260 0023837 213.4060 158.8383  2.13156229262502,64.3288,0.0023837,2.13156229,118.726,213.406,158.8383
19751,COSMOS 1989 (ETALON 1),NSO,22275.53452294,1 19751U 89001C   22275.53452294  .00000056  00000-0  00000-0 0    18\,2 19751  64.3291 118.7021 0023840 213.4055 331.8260  2.13156225262513,64.3291,0.002384,2.13156225,118.7021,213.4055,331.826
19751,COSMOS 1989 (ETALON 1),NSO,22275.74512590,1 19751U 89001C   22275.74512590  .00000057  00000-0  00000-0 0    18\,2 19751  64.3291 118.6949 0023839 213.4094 133.4308  2.13156224262510,64.3291,0.0023839,2.13156224,118.6949,213.4094,133.4308
19751,COSMOS 1989 (ETALON 1),NSO,22276.49542979,1 19751U 89001C   22276.49542979  .00000062  00000-0  00000+0 0  2900\,2 19751  64.3294 118.6690 0023841 213.4123 349.1826  2.13156220262609,64.3294,0.0023841,2.1315622,118.669,213.4123,349.1826
19751,COSMOS 1989 (ETALON 1),NSO,22276.72465368,1 19751U 89001C   22276.72465368  .00000063  00000-0  00000-0 0    14\,2 19751  64.3295 118.6611 0023839 213.4132 165.0795  2.13156220262543,64.3295,0.0023839,2.1315622,118.6611,213.4132,165.0795
19751,COSMOS 1989 (ETALON 1),NSO,22277.39275425,1 19751U 89001C   22277.39275425  .00000068  00000-0  00000-0 0    16\,2 19751  64.3297 118.6382 0023841 213.4083 317.7594  2.13156219262550,64.3297,0.0023841,2.13156219,118.6382,213.4083,317.7594
19751,COSMOS 1989 (ETALON 1),NSO,22277.85914969,1 19751U 89001C   22277.85914969  .00000072  00000-0  00000+0 0  2915\,2 19751  64.3299 118.6221 0023841 213.4063 315.6555  2.13156219262635,64.3299,0.0023841,2.13156219,118.6221,213.4063,315.6555
19751,COSMOS 1989 (ETALON 1),NSO,22278.58687069,1 19751U 89001C   22278.58687069  .00000077  00000-0  00000-0 0    19\,2 19751  64.3301 118.5970 0023840 213.4069 154.0805  2.13156223262586,64.3301,0.002384,2.13156223,118.597,213.4069,154.0805
19751,COSMOS 1989 (ETALON 1),NSO,22278.73344698,1 19751U 89001C   22278.73344698  .00000077  00000-0  00000-0 0    14\,2 19751  64.3302 118.5920 0023841 213.4037 266.5607  2.13156222262586,64.3302,0.0023841,2.13156222,118.592,213.4037,266.5607
19751,COSMOS 1989 (ETALON 1),NSO,22279.27190288,1 19751U 89001C   22279.27190288  .00000080  00000-0  00000+0 0  2923\,2 19751  64.3304 118.5735 0023843 213.4055 319.7496  2.13156225262663,64.3304,0.0023843,2.13156225,118.5735,213.4055,319.7496
19751,COSMOS 1989 (ETALON 1),NSO,22280.47655248,1 19751U 89001C   22280.47655248  .00000080  00000-0  00000-0 0    18\,2 19751  64.3308 118.5320 0023843 213.4078 164.1497  2.13156238262625,64.3308,0.0023843,2.13156238,118.532,213.4078,164.1497
19751,COSMOS 1989 (ETALON 1),NSO,22280.76722473,1 19751U 89001C   22280.76722473  .00000079  00000-0  00000+0 0  2935\,2 19751  64.3309 118.5220 0023844 213.4115  27.1968  2.13156241262690,64.3309,0.0023844,2.13156241,118.522,213.4115,27.1968
19751,COSMOS 1989 (ETALON 1),NSO,22280.89722154,1 19751U 89001C   22280.89722154  .00000078  00000-0  00000-0 0    12\,2 19751  64.3309 118.5175 0023843 213.4107 126.9523  2.13156243262629,64.3309,0.0023843,2.13156243,118.5175,213.4107,126.9523
19751,COSMOS 1989 (ETALON 1),NSO,22281.87674225,1 19751U 89001C   22281.87674225  .00000071  00000-0  00000-0 0    19\,2 19751  64.3313 118.4838 0023844 213.4173 158.5928  2.13156259262653,64.3313,0.0023844,2.13156259,118.4838,213.4173,158.5928
19751,COSMOS 1989 (ETALON 1),NSO,22282.07805785,1 19751U 89001C   22282.07805785  .00000070  00000-0  00000-0 0    18\,2 19751  64.3313 118.4769 0023846 213.4216 313.0704  2.13156263262651,64.3313,0.0023846,2.13156263,118.4769,213.4216,313.0704
19751,COSMOS 1989 (ETALON 1),NSO,22282.81526125,1 19751U 89001C   22282.81526125  .00000062  00000-0  00000-0 0    19\,2 19751  64.3316 118.4515 0023845 213.4291 158.7649  2.13156277262674,64.3316,0.0023845,2.13156277,118.4515,213.4291,158.7649
19751,COSMOS 1989 (ETALON 1),NSO,22283.04948053,1 19751U 89001C   22283.04948053  .00000059  00000-0  00000-0 0    19\,2 19751  64.3316 118.4435 0023845 213.4358 338.4892  2.13156282262672,64.3316,0.0023845,2.13156282,118.4435,213.4358,338.4892
19751,COSMOS 1989 (ETALON 1),NSO,22283.74517125,1 19751U 89001C   22283.74517125  .00000051  00000-0  00000-0 0    10\,2 19751  64.3319 118.4195 0023844 213.4401 152.3316  2.13156296262697,64.3319,0.0023844,2.13156296,118.4195,213.4401,152.3316
19751,COSMOS 1989 (ETALON 1),NSO,22284.38506878,1 19751U 89001C   22284.38506878  .00000044  00000-0  00000-0 0    16\,2 19751  64.3321 118.3975 0023844 213.4519 283.3529  2.13156309262703,64.3321,0.0023844,2.13156309,118.3975,213.4519,283.3529
19751,COSMOS 1989 (ETALON 1),NSO,22285.36871404,1 19751U 89001C   22285.36871404  .00000035  00000-0  00000-0 0    15\,2 19751  64.3324 118.3636 0023839 213.4673 318.1496  2.13156329262729,64.3324,0.0023839,2.13156329,118.3636,213.4673,318.1496
19751,COSMOS 1989 (ETALON 1),NSO,22285.43204236,1 19751U 89001C   22285.43204236  .00000035  00000-0  00000-0 0    16\,2 19751  64.3324 118.3614 0023838 213.4671   6.7456  2.13156330262720,64.3324,0.0023838,2.1315633,118.3614,213.4671,6.7456
19751,COSMOS 1989 (ETALON 1),NSO,22286.30889122,1 19751U 89001C   22286.30889122  .00000031  00000-0  00000-0 0    12\,2 19751  64.3327 118.3313 0023836 213.4623 319.6111  2.13156348262749,64.3327,0.0023836,2.13156348,118.3313,213.4623,319.6111
19751,COSMOS 1989 (ETALON 1),NSO,22287.50014157,1 19751U 89001C   22287.50014157  .00000033  00000-0  00000-0 0    15\,2 19751  64.3331 118.2902 0023834 213.4458 153.7483  2.13156370262778,64.3331,0.0023834,2.1315637,118.2902,213.4458,153.7483
19751,COSMOS 1989 (ETALON 1),NSO,22287.90339928,1 19751U 89001C   22287.90339928  .00000035  00000-0  00000-0 0    17\,2 19751  64.3332 118.2763 0023833 213.4432 103.1956  2.13156377262776,64.3332,0.0023833,2.13156377,118.2763,213.4432,103.1956
19751,COSMOS 1989 (ETALON 1),NSO,22288.43243128,1 19751U 89001C   22288.43243128  .00000040  00000-0  00000-0 0    18\,2 19751  64.3334 118.2582 0023834 213.4349 149.1632  2.13156387262799,64.3334,0.0023834,2.13156387,118.2582,213.4349,149.1632
19751,COSMOS 1989 (ETALON 1),NSO,22288.88864559,1 19751U 89001C   22288.88864559  .00000044  00000-0  00000-0 0    18\,2 19751  64.3336 118.2425 0023835 213.4317 139.2480  2.13156392262790,64.3336,0.0023835,2.13156392,118.2425,213.4317,139.248
19751,COSMOS 1989 (ETALON 1),NSO,22289.05462948,1 19751U 89001C   22289.05462948  .00000046  00000-0  00000+0 0  2983\,2 19751  64.3337 118.2367 0023835 213.4375 266.6120  2.13156395262878,64.3337,0.0023835,2.13156395,118.2367,213.4375,266.612
19751,COSMOS 1989 (ETALON 1),NSO,22289.58700090,1 19751U 89001C   22289.58700090  .00000052  00000-0  00000-0 0    14\,2 19751  64.3339 118.2184 0023834 213.4376 315.1336  2.13156401262818,64.3339,0.0023834,2.13156401,118.2184,213.4376,315.1336
19751,COSMOS 1989 (ETALON 1),NSO,22289.90237442,1 19751U 89001C   22289.90237442  .00000056  00000-0  00000-0 0    10\,2 19751  64.3340 118.2076 0023837 213.4326 197.1444  2.13156402262828,64.334,0.0023837,2.13156402,118.2076,213.4326,197.1444
19751,COSMOS 1989 (ETALON 1),NSO,22290.71732160,1 19751U 89001C   22290.71732160  .00000067  00000-0  00000-0 0    10\,2 19751  64.3343 118.1795 0023838 213.4356 102.5010  2.13156405262835,64.3343,0.0023838,2.13156405,118.1795,213.4356,102.501
19751,COSMOS 1989 (ETALON 1),NSO,22291.00517931,1 19751U 89001C   22291.00517931  .00000071  00000-0  00000-0 0    15\,2 19751  64.3344 118.1696 0023836 213.4439 323.3839  2.13156406262840,64.3344,0.0023836,2.13156406,118.1696,213.4439,323.3839
19751,COSMOS 1989 (ETALON 1),NSO,22291.73204341,1 19751U 89001C   22291.73204341  .00000080  00000-0  00000-0 0    13\,2 19751  64.3346 118.1446 0023841 213.4495 161.1464  2.13156401262862,64.3346,0.0023841,2.13156401,118.1446,213.4495,161.1464
19751,COSMOS 1989 (ETALON 1),NSO,22292.40267672,1 19751U 89001C   22292.40267672  .00000087  00000-0  00000-0 0    11\,2 19751  64.3349 118.1215 0023839 213.4583 315.7563  2.13156396262875,64.3349,0.0023839,2.13156396,118.1215,213.4583,315.7563
19751,COSMOS 1989 (ETALON 1),NSO,22292.60693131,1 19751U 89001C   22292.60693131  .00000090  00000-0  00000-0 0    10\,2 19751  64.3349 118.1145 0023842 213.4569 112.4949  2.13156393262872,64.3349,0.0023842,2.13156393,118.1145,213.4569,112.4949
19751,COSMOS 1989 (ETALON 1),NSO,22293.34367853,1 19751U 89001C   22293.34367853  .00000096  00000-0  00000-0 0    17\,2 19751  64.3352 118.0891 0023841 213.4624 317.8414  2.13156381262891,64.3352,0.0023841,2.13156381,118.0891,213.4624,317.8414
19751,COSMOS 1989 (ETALON 1),NSO,22293.54848168,1 19751U 89001C   22293.54848168  .00000097  00000-0  00000-0 0    13\,2 19751  64.3352 118.0821 0023844 213.4617 115.0002  2.13156377262895,64.3352,0.0023844,2.13156377,118.0821,213.4617,115.0002
19751,COSMOS 1989 (ETALON 1),NSO,22294.28412535,1 19751U 89001C   22294.28412535  .00000101  00000-0  00000-0 0    16\,2 19751  64.3355 118.0568 0023842 213.4617 319.5054  2.13156362262919,64.3355,0.0023842,2.13156362,118.0568,213.4617,319.5054
19751,COSMOS 1989 (ETALON 1),NSO,22294.59548483,1 19751U 89001C   22294.59548483  .00000103  00000-0  00000-0 0    14\,2 19751  64.3356 118.0461 0023845 213.4652 198.4274  2.13156355262925,64.3356,0.0023845,2.13156355,118.0461,213.4652,198.4274
19751,COSMOS 1989 (ETALON 1),NSO,22295.47116072,1 19751U 89001C   22295.47116072  .00000104  00000-0  00000-0 0    18\,2 19751  64.3359 118.0159 0023848 213.4560 150.3972  2.13156333262943,64.3359,0.0023848,2.13156333,118.0159,213.456,150.3972
19751,COSMOS 1989 (ETALON 1),NSO,22296.15989160,1 19751U 89001C   22296.15989160  .00000103  00000-0  00000+0 0  3033\,2 19751  64.3361 117.9922 0023848 213.4465 318.9127  2.13156316263021,64.3361,0.0023848,2.13156316,117.9922,213.4465,318.9127
